#aV2012  5 24  0  0  0.00000000     288 DD+AD WGS84 FIT  NGA
## 1689 345600.00000000   300.00000000 56071 0.0000000000000
+   31     1  2  3  4  5  6  7  8  9 10 11 12 13 14 15 16 17
+         18 19 20 21 22 23 25 26 27 28 29 30 31 32  0  0  0
+          0  0  0  0  0  0  0  0  0  0  0  0  0  0  0  0  0
+          0  0  0  0  0  0  0  0  0  0  0  0  0  0  0  0  0
+          0  0  0  0  0  0  0  0  0  0  0  0  0  0  0  0  0
++         2  2  2  2  2  2  2  2  2  2  2  2  2  2  2  2  2
++         2  2  2  2  2  2  2  2  2  2  2  2  2  2  2  0  0
++         0  0  0  0  0  0  0  0  0  0  0  0  0  0  0  0  0
++         0  0  0  0  0  0  0  0  0  0  0  0  0  0  0  0  0
++         0  0  0  0  0  0  0  0  0  0  0  0  0  0  0  0  0
%c cc cc ccc ccc cccc cccc cccc cccc ccccc ccccc ccccc ccccc
%c cc cc ccc ccc cccc cccc cccc cccc ccccc ccccc ccccc ccccc
%f  0.0000000  0.000000000  0.00000000000  0.000000000000000
%f  0.0000000  0.000000000  0.00000000000  0.000000000000000
%i    0    0    0    0      0      0      0      0         0
%i    0    0    0    0      0      0      0      0         0
/*      NGA, ST. LOUIS,MO.                                  
/*   EPHEMERIS COMPUTED FROM  1 DAYS OF DATA
/*   EPOCHA SMOOTHER  
/* CCCCCCCCCCCCCCCCCCCCCCCCCCCCCCCCCCCCCCCCCCCCCCCCCCCCCCCCC
*  2012  5 24 14 25  0.00000000                                                 
P  1 -14949.030837   3015.226844  21739.615052    258.097782                    
V  1  -6791.909740 -26775.656792   -923.581225      0.018481                    
P  2  13558.344702  20515.033821 -10533.069524    391.321827                    
V  2    886.633547  13680.732813  26941.970339      0.012888                    
P  3 -22299.905835 -10912.708054 -10280.795422     53.137688                    
V  3  12644.576800  -1191.783055 -27148.097327      0.050123                    
P  4   6572.452558  25553.191795   -145.460503    193.240303                    
V  4  -3750.716589    841.005444  31430.929189      0.115615                    
P  5  13571.293241   8072.153962 -21390.049378   -318.491232                    
V  5 -19145.277252  19228.678061  -4771.982230     -0.038216                    
P  6 -19077.541764 -13686.614171 -12578.717836     23.927011                    
V  6  16304.914617    876.272163 -25126.998334     -0.027351                    
P  7  -8833.685134  16841.749001 -18409.321241     84.135976                    
V  7  -6779.571885 -22519.195334 -17579.197501      0.034669                    
P  8  -1427.930004  24979.029888  -7912.875075      1.283602                    
V  8  -3491.132325  -9854.399528 -30780.277325      0.000695                    
P  9  15101.733779   2063.559570  21188.775268    160.337654                    
V  9   6636.097691  27387.188225  -7247.738078      0.026285                    
P 10  -2783.490181  19837.053227 -17493.828517    -39.182871                    
V 10 -17458.109281  13420.228863  18653.844131     -0.011196                    
P 11 -18850.739667  -3135.008926  18174.521864   -264.514595                    
V 11 -10036.144053 -21993.559760 -13591.398855     -0.038663                    
P 12  21442.940349  -7324.937640  13686.918656     70.729305                    
V 12 -11533.770950  13202.095763  25314.050257      0.020808                    
P 13 -15120.935007   8552.928327 -20266.190512    205.413185                    
V 13 -23346.974139  -9812.701753  13277.306577     -0.023960                    
P 14  -3413.696242 -16193.412745  20984.086870    203.538208                    
V 14  24850.159308   8171.870059  10295.271358      0.008999                    
P 15  25963.492797   2633.795426   5500.098612    -91.428268                    
V 15   5986.925988   4672.854965 -30243.251154     -0.001322                    
P 16 -12703.478928  -8259.632001 -21841.060566   -235.944532                    
V 16  20516.419000 -18530.260995  -4614.498099     -0.012752                    
P 17   1608.352375  16086.691632  21290.652093    126.390104                    
V 17 -25450.878078  -7651.020153   7537.962654     -0.029171                    
P 18  16064.790751 -20397.870335   4927.726587    197.230257                    
V 18   7005.680631  -1214.983345 -30445.141220      0.017910                    
P 19 -25578.907551  -6887.659181   3851.517470   -268.422635                    
V 19  -3688.402693  -4052.165380 -30986.260286     -0.037471                    
P 20 -21395.879022  12251.315832   9633.879512     63.511002                    
V 20   6079.469550 -11491.919878  27726.584635      0.001472                    
P 21   6265.049991 -20524.182285 -14774.736721   -225.757323                    
V 21   7883.111390  18604.524898 -22360.628561     -0.024683                    
P 22   3951.067735 -20629.711516  16364.494829    144.021984                    
V 22  16673.204326 -12348.454699 -19941.139626      0.003253                    
P 23 -23599.660291   1994.653045 -12360.859191    202.204452                    
V 23 -14368.373532  -6446.697116  25949.400482     -0.037349                    
P 25  19363.746334 -18093.515775   1106.952541     34.403572                    
V 25    810.348377   2877.215228  31935.217258      0.004777                    
P 26  21994.068298  13623.082543  -7428.685758   -392.845610                    
V 26  -8495.001878  -1531.738289 -30182.401549      0.096127                    
P 27  16350.662173   8425.210781  19952.831253    391.313915                    
V 27   6109.144806  23009.256524 -14717.803513      0.039725                    
P 28  -7286.243401  20450.521862  15700.382010    147.429669                    
V 28 -15293.283920  11370.069091 -22926.903491      0.040136                    
P 29  17989.673774  -7252.993121 -18055.504668    316.303928                    
V 29  21401.900805   8765.071102  17782.571370      0.037569                    
P 30  -4992.064581 -16456.063302 -20600.136645   -197.706424                    
V 30  17039.854095 -18802.774368  11089.862974     -0.206363                    
P 31  -6666.849225 -25541.319909  -1045.997814    245.573207                    
V 31   1981.522417  -2067.711104  32316.573654      0.040732                    
P 32 -21025.982863   2473.831594  15947.910565   -447.124594                    
V 32  14101.341243 -14494.504404  21588.389529     -0.039918                    
EOF
